TimeEDT,TemperatureF,Dew PointF,Humidity,Sea Level PressureIn,VisibilityMPH,Wind Direction,Wind SpeedMPH,Gust SpeedMPH,PrecipitationIn,Events,Conditions,WindDirDegrees,DateUTC
12:32 AM,60.8,57.2,88,30.13,2.0,Calm,Calm,-,0.06,Rain,Light Rain,0,2014-03-29 04:32:00
12:51 AM,60.1,57.9,93,30.12,1.0,Calm,Calm,-,0.10,Rain,Rain,0,2014-03-29 04:51:00
1:04 AM,59.0,57.2,94,30.13,0.2,Calm,Calm,-,0.03,Rain,Rain,0,2014-03-29 05:04:00
1:31 AM,59.0,57.2,94,30.13,2.0,West,3.5,-,0.17,Rain,Light Rain,260,2014-03-29 05:31:00
1:51 AM,59.0,57.0,93,30.11,2.0,Calm,Calm,-,0.23,Rain,Light Rain,0,2014-03-29 05:51:00
1:56 AM,59.0,57.2,94,30.12,3.0,Calm,Calm,-,0.01,Rain,Light Rain,0,2014-03-29 05:56:00
2:19 AM,59.0,57.2,94,30.11,0.5,Calm,Calm,-,0.05,Rain,Light Rain,0,2014-03-29 06:19:00
2:40 AM,57.2,55.4,94,30.08,2.0,NE,3.5,-,0.06,Rain,Light Rain,50,2014-03-29 06:40:00
2:51 AM,57.9,55.9,93,30.09,2.0,Calm,Calm,-,0.06,Rain,Light Rain,0,2014-03-29 06:51:00
2:59 AM,57.2,55.4,94,30.09,4.0,Calm,Calm,-,0.01,Rain,Light Rain,0,2014-03-29 06:59:00
3:51 AM,57.9,55.9,93,30.06,4.0,East,3.5,-,0.02,Rain,Light Rain,80,2014-03-29 07:51:00
4:51 AM,57.0,55.9,96,30.02,3.0,Calm,Calm,-,0.00,,Overcast,0,2014-03-29 08:51:00
5:27 AM,57.2,55.4,94,30.03,0.5,Calm,Calm,-,N/A,,Overcast,0,2014-03-29 09:27:00
5:34 AM,57.2,55.4,94,30.04,4.0,Calm,Calm,-,N/A,,Overcast,0,2014-03-29 09:34:00
5:51 AM,57.0,55.9,96,30.03,4.0,Calm,Calm,-,0.01,Rain,Light Rain,0,2014-03-29 09:51:00
6:31 AM,57.2,55.4,94,30.04,5.0,Calm,Calm,-,0.01,Rain,Light Rain,0,2014-03-29 10:31:00
6:51 AM,57.0,55.9,96,30.03,4.0,Calm,Calm,-,0.02,Rain,Light Rain,0,2014-03-29 10:51:00
6:55 AM,57.2,55.4,94,30.03,2.0,Calm,Calm,-,0.00,Rain,Light Rain,0,2014-03-29 10:55:00
7:18 AM,57.2,55.4,94,30.03,1.0,Calm,Calm,-,0.02,Rain,Light Rain,0,2014-03-29 11:18:00
7:51 AM,57.9,55.9,93,30.02,1.0,ESE,3.5,-,0.05,Rain,Light Rain,110,2014-03-29 11:51:00
8:12 AM,57.2,55.4,94,30.02,1.0,SE,3.5,-,0.00,Rain,Light Rain,140,2014-03-29 12:12:00
8:51 AM,57.9,57.0,97,30.01,1.0,SE,3.5,-,0.02,,Overcast,140,2014-03-29 12:51:00
9:34 AM,59.0,57.2,94,29.99,1.0,Calm,Calm,-,0.01,Rain,Light Rain,0,2014-03-29 13:34:00
9:51 AM,59.0,57.0,93,30.00,1.0,ESE,3.5,-,0.02,,Overcast,110,2014-03-29 13:51:00
10:47 AM,60.8,57.2,88,29.96,2.0,SE,6.9,-,0.03,,Overcast,130,2014-03-29 14:47:00
10:51 AM,60.1,57.9,93,29.95,2.0,SE,8.1,-,0.03,,Overcast,130,2014-03-29 14:51:00
11:51 AM,62.1,59.0,90,29.92,2.0,South,8.1,-,N/A,,Overcast,170,2014-03-29 15:51:00
12:05 PM,62.6,59.0,88,29.91,7.0,South,8.1,-,N/A,,Overcast,180,2014-03-29 16:05:00
12:51 PM,63.0,60.1,90,29.86,10.0,SSE,9.2,-,0.00,,Overcast,160,2014-03-29 16:51:00
1:51 PM,64.0,60.1,87,29.81,1.5,SSE,8.1,-,0.00,Rain,Light Rain,150,2014-03-29 17:51:00
2:18 PM,64.4,60.8,88,29.79,10.0,SSE,9.2,-,0.00,,Overcast,160,2014-03-29 18:18:00
2:51 PM,64.9,61.0,87,29.74,10.0,SSE,9.2,18.4,0.00,,Overcast,150,2014-03-29 18:51:00
3:03 PM,64.4,60.8,88,29.74,2.0,SSE,10.4,19.6,N/A,,Overcast,160,2014-03-29 19:03:00
3:51 PM,64.9,62.1,90,29.72,2.0,South,9.2,-,N/A,,Overcast,180,2014-03-29 19:51:00
4:51 PM,64.9,62.1,90,29.69,10.0,SSW,9.2,-,0.00,,Overcast,210,2014-03-29 20:51:00
5:20 PM,64.4,60.8,88,29.71,10.0,SSW,9.2,-,N/A,,Overcast,210,2014-03-29 21:20:00
5:44 PM,66.2,62.6,88,29.69,10.0,South,8.1,-,N/A,,Overcast,190,2014-03-29 21:44:00
5:51 PM,64.9,62.1,90,29.68,10.0,South,6.9,-,N/A,,Overcast,180,2014-03-29 21:51:00
6:51 PM,64.9,61.0,87,29.66,10.0,South,9.2,-,N/A,,Overcast,170,2014-03-29 22:51:00
7:51 PM,64.0,62.1,93,29.65,6.0,South,5.8,-,0.02,Rain,Light Rain,170,2014-03-29 23:51:00
8:51 PM,64.0,62.1,93,29.62,8.0,SSE,8.1,-,0.01,,Overcast,160,2014-03-30 00:51:00
9:51 PM,64.0,60.1,87,29.59,10.0,South,3.5,-,0.01,,Overcast,170,2014-03-30 01:51:00
10:51 PM,61.0,59.0,93,29.58,10.0,SSW,6.9,-,N/A,,Overcast,210,2014-03-30 02:51:00
11:51 PM,63.0,60.1,90,29.56,10.0,SSW,6.9,-,N/A,,Overcast,210,2014-03-30 03:51:00
